SL-14 R/B               
1 16496U 86006B   26081.98025817  .00000801  00000+0  82598-4 0  9997
2 16496  82.5241 247.2250 0075400 227.9150 131.5640 14.86834042151180
COSMOS 1743             
1 16719U 86034A   26082.18475748  .00044997  00000+0  56286-3 0  9999
2 16719  82.5304  59.6549 0003130 190.2985 169.8208 15.59614085182354
SL-14 R/B               
1 16792U 86046B   26082.00886820  .00000494  00000+0  54001-4 0  9999
2 16792  82.4794  67.5929 0023029 180.0739 180.0478 14.85602770128383
SL-14 R/B               
1 16882U 86055B   26082.13784488  .00000449  00000+0  48969-4 0  9996
2 16882  82.5178 114.0316 0017395 289.3007 127.6672 14.85654229121368
AJISAI (EGS)            
1 16908U 86061A   26082.28959346 -.00000108  00000+0 -73607-4 0  9996
2 16908  50.0099  51.5262 0011313 322.0817 117.2445 12.44515661469695
SL-14 R/B               
1 17567U 87024B   26082.03741037  .00000491  00000+0  53102-4 0  9998
2 17567  82.5247  80.2142 0017307 212.3688 147.6468 14.86144368 90113
COSMOS 1833             
1 17589U 87027A   26082.02716955 -.00000266  00000+0 -11632-3 0  9998
2 17589  70.9186 297.9865 0023568 195.1710 164.8707 14.13050200 12201
SL-16 R/B               
1 17590U 87027B   26082.17391213 -.00000199  00000+0 -74850-4 0  9999
2 17590  70.9994 248.0776 0002954 110.5729 249.5712 14.17166065 17253
SL-14 R/B               
1 17912U 87038B   26081.56769064  .00000449  00000+0  49146-4 0  9990
2 17912  82.4981 284.6734 0020573 119.8947 240.4316 14.85380208 81147
COSMOS 1844             
1 17973U 87041A   26082.18959910  .00000237  00000+0  14819-3 0  9994
2 17973  70.9012   5.7014 0030697 358.2402   1.8607 14.14552754  5492
SL-14 R/B               
1 18153U 87055B   26082.21581908  .00000482  00000+0  52697-4 0  9991
2 18153  82.5017 336.2861 0019939 332.9014  27.1159 14.85643096 71947
COSMOS 1867             
1 18187U 87060A   26082.20398657 -.00000032  00000+0  25457-4 0  9996
2 18187  65.0091 268.8571 0014696 279.4765  80.4658 14.31505021 21872
SL-14 R/B               
1 18749U 88001B   26082.01003311  .00000571  00000+0  63116-4 0  9996
2 18749  82.5163 182.8357 0017820 189.6403 170.4474 14.85542583 44009
COSMOS 1933             
1 18958U 88020A   26081.84151601  .00005812  00000+0  28357-3 0  9995
2 18958  82.5117 237.8956 0004952 141.1355 219.0236 15.18102185 52223
SL-3 R/B                
1 19046U 88032B   26082.22815429  .00006237  00000+0  28983-3 0  9992
2 19046  97.5214  65.4343 0025719 182.6369 177.4735 15.20055452 54163
SL-16 R/B               
1 19120U 88039B   26082.15681306 -.00000082  00000+0 -15822-4 0  9992
2 19120  71.0157  40.0694 0023415 314.9337  44.9888 14.19617698960293
COSMOS 1953             
1 19210U 88050A   26082.24127979  .00009239  00000+0  32880-3 0  9999
2 19210  82.5081 144.6167 0012572  80.2703 279.9956 15.28738863 39858
